[Satellite]
VERSION=1.1
NAME=CZ-6A DEB
NICKNAME=CZ-6A DEB
TLE1=1 54583U 22151MK  22342.24221564  .00002095  00000+0  14151-2 0  9994
TLE2=2 54583  98.8148 346.3302 0096886  20.2241 340.2721 13.99202787  2979
STATUS=0
